OBJECT_NAME,OBJECT_ID,EPOCH,MEAN_MOTION,ECCENTRICITY,INCLINATION,RA_OF_ASC_NODE,ARG_OF_PERICENTER,MEAN_ANOMALY,EPHEMERIS_TYPE,CLASSIFICATION_TYPE,NORAD_CAT_ID,ELEMENT_SET_NO,REV_AT_EPOCH,BSTAR,MEAN_MOTION_DOT,MEAN_MOTION_DDOT
STARLINK-37656,2026-143A,2026-07-17T02:09:04.622976,15.49208037,.0000935,97.2849,241.9910,105.0816,255.0539,0,U,69649,999,517,.4647E-3,.25281E-3,0
STARLINK-37646,2026-143B,2026-07-17T01:55:56.045856,15.49208406,.000169,97.2836,242.1575,99.2970,260.8472,0,U,69650,999,518,.55034E-3,.29976E-3,0
STARLINK-37749,2026-143C,2026-07-17T02:05:49.833312,15.49215976,.0000824,97.2842,242.1477,138.7142,221.4172,0,U,69651,999,518,.29288E-3,.15885E-3,0
STARLINK-37819,2026-143D,2026-07-17T02:22:30.042048,15.49219289,.0001683,97.2815,242.1313,91.4316,268.7128,0,U,69652,999,518,.68551E-3,.3741E-3,0
STARLINK-37729,2026-143E,2026-07-17T04:00:01.998720,15.78771221,.0001488,97.2832,242.6981,46.5502,43.9405,0,U,69653,999,527,-.15442E-1,-.2337878E-1,0
STARLINK-37838,2026-143F,2026-07-17T01:39:51.954048,15.49210924,.000088,97.2838,242.1737,65.1728,294.9614,0,U,69654,999,518,.40327E-3,.2192E-3,0
STARLINK-37884,2026-143G,2026-07-17T02:34:43.140000,15.48790797,.0002614,97.2837,242.1205,180.3963,179.7287,0,U,69655,999,518,-.29432E-2,-.154913E-2,0
STARLINK-37876,2026-143H,2026-07-17T04:00:01.998720,15.45009508,.0002552,97.2844,242.2745,96.8675,77.0076,0,U,69656,999,517,-.71022E-1,-.2961836E-1,0
STARLINK-37784,2026-143J,2026-07-17T02:23:46.619232,15.49231973,.0001407,97.2853,242.1322,101.5268,258.6141,0,U,69657,999,511,.43826E-3,.23853E-3,0
STARLINK-37851,2026-143K,2026-07-17T01:43:35.226336,15.49205906,.0000623,97.2843,242.1702,94.0044,266.1278,0,U,69658,999,511,.3723E-3,.20222E-3,0
STARLINK-37229,2026-143L,2026-07-16T16:53:35.281248,15.49198644,.0001427,97.2840,241.7507,92.5730,267.5685,0,U,69659,999,506,.27615E-3,.14962E-3,0
STARLINK-37556,2026-143M,2026-07-17T04:00:01.998720,15.36982871,.0001123,97.2839,242.2120,78.5213,322.4057,0,U,69660,999,521,-.39858E-3,-.1445E-3,0
STARLINK-37867,2026-143N,2026-07-17T04:58:57.675936,15.39907428,.0001086,97.2842,242.2912,21.9304,338.1988,0,U,69661,999,513,-.28597E-1,-.1031811E-1,0
STARLINK-37852,2026-143P,2026-07-17T02:29:41.961696,15.49206864,.0001251,97.2850,242.1269,85.5773,274.5621,0,U,69662,999,511,.44996E-3,.24473E-3,0
STARLINK-37554,2026-143Q,2026-07-17T04:00:01.998720,15.41212698,.0002233,97.2853,242.2447,66.1278,25.6915,0,U,69663,999,521,-.79417E-1,-.2917917E-1,0
STARLINK-37830,2026-143R,2026-07-17T04:00:01.998720,15.45934967,.0001234,97.2838,242.2046,89.4004,296.2410,0,U,69664,999,517,-.72818E-1,-.311273E-1,0
STARLINK-37837,2026-143S,2026-07-17T04:00:01.998720,15.36990021,.0000848,97.2834,242.2045,72.3179,312.6730,0,U,69665,999,518,-.56659E-3,-.20497E-3,0
STARLINK-37943,2026-143T,2026-07-17T02:18:35.841024,15.49206102,.0001651,97.2843,242.1369,95.0179,265.1261,0,U,69666,999,511,.47863E-3,.26043E-3,0
STARLINK-37941,2026-143U,2026-07-17T02:00:24.670368,15.49208253,.00009,97.2839,242.1529,102.7732,257.3620,0,U,69667,999,511,.51017E-3,.27772E-3,0
STARLINK-37930,2026-143V,2026-07-17T01:59:38.823072,15.49238300,.0001167,97.2839,242.1534,117.7877,242.3492,0,U,69668,999,511,.5361E-3,.29225E-3,0
STARLINK-37945,2026-143W,2026-07-17T01:41:03.861312,15.49200166,.0000806,97.2808,242.1687,71.0791,289.0547,0,U,69669,999,511,.38917E-3,.2114E-3,0
STARLINK-37948,2026-143X,2026-07-17T01:17:01.877280,15.49213701,.0001321,97.2848,242.0436,80.4838,279.6563,0,U,69670,999,510,.49188E-3,.26775E-3,0
STARLINK-37949,2026-143Y,2026-07-16T16:56:49.956000,15.49195676,.0000694,97.2835,241.7477,108.3003,251.8324,0,U,69671,999,505,.25616E-3,.13869E-3,0
STARLINK-37946,2026-143Z,2026-07-17T01:54:50.795712,15.49213858,.0000983,97.2836,242.1592,105.5065,254.6295,0,U,69672,999,511,.56717E-3,.30904E-3,0
TJS-26A,2026-144A,2026-07-12T07:10:37.543296,1.00274367,.0004208,6.9538,323.2302,347.4913,194.6526,0,U,69674,999,19,0,-.341E-5,0
CZ-7A R/B,2026-144B,2026-07-16T23:36:57.775392,2.63463464,.7066018,19.4415,314.1653,198.3004,110.4246,0,U,69675,999,61,.13859E-2,.1222309E-1,.15342E-5
STARLINK-38005,2026-145A,2026-07-17T00:27:22.400064,15.75258316,.0000504,97.2839,44.9427,133.9992,226.1314,0,U,69677,999,346,.11856E-2,.181049E-2,0
STARLINK-38009,2026-145B,2026-07-17T00:24:49.928256,15.75276667,.0000435,97.2845,44.9457,66.5626,293.5685,0,U,69678,999,346,.13839E-2,.212304E-2,0
STARLINK-37998,2026-145C,2026-07-17T00:21:16.584192,15.75264197,.0000569,97.2834,44.9489,77.0922,283.0407,0,U,69679,999,346,.14855E-2,.228196E-2,0
STARLINK-37994,2026-145D,2026-07-17T00:23:18.556800,15.75271225,.000047,97.2836,44.9472,124.3515,235.7795,0,U,69680,999,346,.14212E-2,.218118E-2,0
