STARLINK-37656          
1 69649U 26143A   26198.08963684  .00025281  00000+0  46470-3 0  9991
2 69649  97.2849 241.9910 0000935 105.0816 255.0539 15.49208037  5170
STARLINK-37646          
1 69650U 26143B   26198.08050979  .00029976  00000+0  55034-3 0  9998
2 69650  97.2836 242.1575 0001690  99.2970 260.8472 15.49208406  5183
STARLINK-37749          
1 69651U 26143C   26198.08738233  .00015885  00000+0  29288-3 0  9991
2 69651  97.2842 242.1477 0000824 138.7142 221.4172 15.49215976  5180
STARLINK-37819          
1 69652U 26143D   26198.09895882  .00037410  00000+0  68551-3 0  9991
2 69652  97.2815 242.1313 0001683  91.4316 268.7128 15.49219289  5188
STARLINK-37729          
1 69653U 26143E   26198.16668980 -.02337878  00000+0 -15442-1 0  9991
2 69653  97.2832 242.6981 0001488  46.5502  43.9405 15.78771221  5277
STARLINK-37838          
1 69654U 26143F   26198.06935132  .00021920  00000+0  40327-3 0  9993
2 69654  97.2838 242.1737 0000880  65.1728 294.9614 15.49210924  5186
STARLINK-37884          
1 69655U 26143G   26198.10744375 -.00154913  00000+0 -29432-2 0  9990
2 69655  97.2837 242.1205 0002614 180.3963 179.7287 15.48790797  5180
STARLINK-37876          
1 69656U 26143H   26198.16668980 -.02961836  00000+0 -71022-1 0  9997
2 69656  97.2844 242.2745 0002552  96.8675  77.0076 15.45009508  5176
STARLINK-37784          
1 69657U 26143J   26198.09984513  .00023853  00000+0  43826-3 0  9990
2 69657  97.2853 242.1322 0001407 101.5268 258.6141 15.49231973  5118
STARLINK-37851          
1 69658U 26143K   26198.07193549  .00020222  00000+0  37230-3 0  9999
2 69658  97.2843 242.1702 0000623  94.0044 266.1278 15.49205906  5119
STARLINK-37229          
1 69659U 26143L   26197.70388057  .00014962  00000+0  27615-3 0  9999
2 69659  97.2840 241.7507 0001427  92.5730 267.5685 15.49198644  5064
STARLINK-37556          
1 69660U 26143M   26198.16668980 -.00014450  00000+0 -39858-3 0  9994
2 69660  97.2839 242.2120 0001123  78.5213 322.4057 15.36982871  5214
STARLINK-37867          
1 69661U 26143N   26198.20761199 -.01031811  00000+0 -28597-1 0  9993
2 69661  97.2842 242.2912 0001086  21.9304 338.1988 15.39907428  5135
STARLINK-37852          
1 69662U 26143P   26198.10395789  .00024473  00000+0  44996-3 0  9997
2 69662  97.2850 242.1269 0001251  85.5773 274.5621 15.49206864  5111
STARLINK-37554          
1 69663U 26143Q   26198.16668980 -.02917917  00000+0 -79417-1 0  9992
2 69663  97.2853 242.2447 0002233  66.1278  25.6915 15.41212698  5216
STARLINK-37830          
1 69664U 26143R   26198.16668980 -.03112730  00000+0 -72818-1 0  9992
2 69664  97.2838 242.2046 0001234  89.4004 296.2410 15.45934967  5175
STARLINK-37837          
1 69665U 26143S   26198.16668980 -.00020497  00000+0 -56659-3 0  9995
2 69665  97.2834 242.2045 0000848  72.3179 312.6730 15.36990021  5187
STARLINK-37943          
1 69666U 26143T   26198.09624816  .00026043  00000+0  47863-3 0  9996
2 69666  97.2843 242.1369 0001651  95.0179 265.1261 15.49206102  5119
STARLINK-37941          
1 69667U 26143U   26198.08361887  .00027772  00000+0  51017-3 0  9998
2 69667  97.2839 242.1529 0000900 102.7732 257.3620 15.49208253  5111
STARLINK-37930          
1 69668U 26143V   26198.08308823  .00029225  00000+0  53610-3 0  9996
2 69668  97.2839 242.1534 0001167 117.7877 242.3492 15.49238300  5117
STARLINK-37945          
1 69669U 26143W   26198.07018358  .00021140  00000+0  38917-3 0  9998
2 69669  97.2808 242.1687 0000806  71.0791 289.0547 15.49200166  5117
STARLINK-37948          
1 69670U 26143X   26198.05349395  .00026775  00000+0  49188-3 0  9997
2 69670  97.2848 242.0436 0001321  80.4838 279.6563 15.49213701  5104
STARLINK-37949          
1 69671U 26143Y   26197.70613375  .00013869  00000+0  25616-3 0  9991
2 69671  97.2835 241.7477 0000694 108.3003 251.8324 15.49195676  5059
STARLINK-37946          
1 69672U 26143Z   26198.07975458  .00030904  00000+0  56717-3 0  9991
2 69672  97.2836 242.1592 0000983 105.5065 254.6295 15.49213858  5110
TJS-26A                 
1 69674U 26144A   26193.29904564 -.00000341  00000+0  00000+0 0  9996
2 69674   6.9538 323.2302 0004208 347.4913 194.6526  1.00274367   198
CZ-7A R/B               
1 69675U 26144B   26197.98400203  .01222309  15342-5  13859-2 0  9998
2 69675  19.4415 314.1653 7066018 198.3004 110.4246  2.63463464   618
STARLINK-38005          
1 69677U 26145A   26198.01900926  .00181049  00000+0  11856-2 0  9991
2 69677  97.2839  44.9427 0000504 133.9992 226.1314 15.75258316  3465
STARLINK-38009          
1 69678U 26145B   26198.01724454  .00212304  00000+0  13839-2 0  9994
2 69678  97.2845  44.9457 0000435  66.5626 293.5685 15.75276667  3462
STARLINK-37998          
1 69679U 26145C   26198.01477528  .00228196  00000+0  14855-2 0  9997
2 69679  97.2834  44.9489 0000569  77.0922 283.0407 15.75264197  3461
STARLINK-37994          
1 69680U 26145D   26198.01618700  .00218118  00000+0  14212-2 0  9998
2 69680  97.2836  44.9472 0000470 124.3515 235.7795 15.75271225  3466
